{"type": "FeatureCollection", "features": [ {"type": "Feature", "properties": {"norad_id": 30345, "name": "FENGYUN 1C DEB", "group": "fengyun-1c-debris", "lat": -73.48498900903137, "lon": -151.26970672978962, "alt_km": 751.9143702120791, "timestamp": "2025-12-26T17:24:54.995131+00:00", "meta": {"OBJECT_NAME": "FENGYUN 1C DEB", "OBJECT_ID": "1999-025ABG", "EPOCH": "2025-12-26T02:54:27.847296", "MEAN_MOTION": 14.41826329, "ECCENTRICITY": 0.00181542, "INCLINATION": 98.9197, "RA_OF_ASC_NODE": 60.0832, "ARG_OF_PERICENTER": 204.822, "MEAN_ANOMALY": 155.2096, "EPHEMERIS_TYPE": 0, "CLASSIFICATION_TYPE": "U", "NORAD_CAT_ID": 30345, "ELEMENT_SET_NO": 999, "REV_AT_EPOCH": 97966, "BSTAR": 0.0019544351, "MEAN_MOTION_DOT": 6.359e-05, "MEAN_MOTION_DDOT": 0}, "tle": {"line1": "1 30345U 99025ABG 25360.12115564  .00006359  00000+0  19544-2 0  9998", "line2": "2 30345  98.9197  60.0832 0018154 204.8220 155.2096 14.41826329979661"}}, "geometry": {"type": "Point", "coordinates": [-151.26970672978962, -73.48498900903137]}}, {"type": "Feature", "properties": {"norad_id": 30346, "name": "FENGYUN 1C DEB", "group": "fengyun-1c-debris", "lat": -62.807064968154805, "lon": 115.25082697397794, "alt_km": 757.8594829899002, "timestamp": "2025-12-26T17:24:54.995142+00:00", "meta": {"OBJECT_NAME": "FENGYUN 1C DEB", "OBJECT_ID": "1999-025ABH", "EPOCH": "2025-12-25T05:08:23.271072", "MEAN_MOTION": 14.34015409, "ECCENTRICITY": 0.0055061, "INCLINATION": 98.8077, "RA_OF_ASC_NODE": 96.1475, "ARG_OF_PERICENTER": 346.13, "MEAN_ANOMALY": 71.6635, "EPHEMERIS_TYPE": 0, "CLASSIFICATION_TYPE": "U", "NORAD_CAT_ID": 30346, "ELEMENT_SET_NO": 999, "REV_AT_EPOCH": 97592, "BSTAR": 0.0019443, "MEAN_MOTION_DOT": 5.48e-05, "MEAN_MOTION_DDOT": 0}, "tle": {"line1": "1 30346U 99025ABH 25359.21415823  .00005480  00000+0  19443-2 0  9990", "line2": "2 30346  98.8077  96.1475 0055061 346.1300  71.6635 14.34015409975924"}}, "geometry": {"type": "Point", "coordinates": [115.25082697397794, -62.807064968154805]}}, {"type": "Feature", "properties": {"norad_id": 30347, "name": "FENGYUN 1C DEB", "group": "fengyun-1c-debris", "lat": 56.38447172486499, "lon": 170.47801121894122, "alt_km": 861.6187494214919, "timestamp": "2025-12-26T17:24:54.995151+00:00", "meta": {"OBJECT_NAME": "FENGYUN 1C DEB", "OBJECT_ID": "1999-025ABJ", "EPOCH": "2025-12-25T11:57:32.815872", "MEAN_MOTION": 13.927744, "ECCENTRICITY": 0.0150024, "INCLINATION": 98.3767, "RA_OF_ASC_NODE": 182.1722, "ARG_OF_PERICENTER": 358.3134, "MEAN_ANOMALY": 27.0984, "EPHEMERIS_TYPE": 0, "CLASSIFICATION_TYPE": "U", "NORAD_CAT_ID": 30347, "ELEMENT_SET_NO": 999, "REV_AT_EPOCH": 96138, "BSTAR": 0.00015107, "MEAN_MOTION_DOT": 1.76e-06, "MEAN_MOTION_DDOT": 0}, "tle": {"line1": "1 30347U 99025ABJ 25359.49829648  .00000176  00000+0  15107-3 0  9996", "line2": "2 30347  98.3767 182.1722 0150024 358.3134  27.0984 13.92774400961385"}}, "geometry": {"type": "Point", "coordinates": [170.47801121894122, 56.38447172486499]}}, {"type": "Feature", "properties": {"norad_id": 30348, "name": "FENGYUN 1C DEB", "group": "fengyun-1c-debris", "lat": -68.11329380188353, "lon": 118.70906858425248, "alt_km": 772.0548465547299, "timestamp": "2025-12-26T17:24:54.995161+00:00", "meta": {"OBJECT_NAME": "FENGYUN 1C DEB", "OBJECT_ID": "1999-025ABK", "EPOCH": "2025-12-26T06:18:28.824768", "MEAN_MOTION": 14.35238963, "ECCENTRICITY": 0.00173251, "INCLINATION": 98.8628, "RA_OF_ASC_NODE": 95.379, "ARG_OF_PERICENTER": 332.0286, "MEAN_ANOMALY": 88.3539, "EPHEMERIS_TYPE": 0, "CLASSIFICATION_TYPE": "U", "NORAD_CAT_ID": 30348, "ELEMENT_SET_NO": 999, "REV_AT_EPOCH": 97728, "BSTAR": 0.0019395778, "MEAN_MOTION_DOT": 5.517e-05, "MEAN_MOTION_DDOT": 0}, "tle": {"line1": "1 30348U 99025ABK 25360.26283362  .00005517  00000+0  19396-2 0  9998", "line2": "2 30348  98.8628  95.3790 0017325 332.0286  88.3539 14.35238963977289"}}, "geometry": {"type": "Point", "coordinates": [118.70906858425248, -68.11329380188353]}}, {"type": "Feature", "properties": {"norad_id": 30349, "name": "FENGYUN 1C DEB", "group": "fengyun-1c-debris", "lat": 39.56413676441204, "lon": 149.72976899348944, "alt_km": 914.7106312056812, "timestamp": "2025-12-26T17:24:54.995172+00:00", "meta": {"OBJECT_NAME": "FENGYUN 1C DEB", "OBJECT_ID": "1999-025ABL", "EPOCH": "2025-12-25T20:37:47.827776", "MEAN_MOTION": 14.11203178, "ECCENTRICITY": 0.00888576, "INCLINATION": 98.5861, "RA_OF_ASC_NODE": 321.7307, "ARG_OF_PERICENTER": 335.422, "MEAN_ANOMALY": 86.7676, "EPHEMERIS_TYPE": 0, "CLASSIFICATION_TYPE": "U", "NORAD_CAT_ID": 30349, "ELEMENT_SET_NO": 999, "REV_AT_EPOCH": 96416, "BSTAR": 0.0022235453, "MEAN_MOTION_DOT": 4.121e-05, "MEAN_MOTION_DDOT": 0}, "tle": {"line1": "1 30349U 99025ABL 25359.85958134  .00004121  00000+0  22235-2 0  9994", "line2": "2 30349  98.5861 321.7307 0088857 335.4220  86.7676 14.11203178964160"}}, "geometry": {"type": "Point", "coordinates": [149.72976899348944, 39.56413676441204]}}, {"type": "Feature", "properties": {"norad_id": 30350, "name": "FENGYUN 1C DEB", "group": "fengyun-1c-debris", "lat": 81.57867280094473, "lon": 71.10065256398282, "alt_km": 1107.0720835187567, "timestamp": "2025-12-26T17:24:54.995182+00:00", "meta": {"OBJECT_NAME": "FENGYUN 1C DEB", "OBJECT_ID": "1999-025ABM", "EPOCH": "2025-12-24T11:15:36.498816", "MEAN_MOTION": 13.82835756, "ECCENTRICITY": 0.02193134, "INCLINATION": 98.0924, "RA_OF_ASC_NODE": 175.2133, "ARG_OF_PERICENTER": 276.3105, "MEAN_ANOMALY": 109.1612, "EPHEMERIS_TYPE": 0, "CLASSIFICATION_TYPE": "U", "NORAD_CAT_ID": 30350, "ELEMENT_SET_NO": 999, "REV_AT_EPOCH": 95144, "BSTAR": 0.00075883248, "MEAN_MOTION_DOT": 9.57e-06, "MEAN_MOTION_DDOT": 0}, "tle": {"line1": "1 30350U 99025ABM 25358.46917244  .00000957  00000+0  75883-3 0  9990", "line2": "2 30350  98.0924 175.2133 0219313 276.3105 109.1612 13.82835756951441"}}, "geometry": {"type": "Point", "coordinates": [71.10065256398282, 81.57867280094473]}}, {"type": "Feature", "properties": {"norad_id": 30352, "name": "FENGYUN 1C DEB", "group": "fengyun-1c-debris", "lat": 9.69054842637474, "lon": -157.10435930208976, "alt_km": 875.4623810247494, "timestamp": "2025-12-26T17:24:54.995191+00:00", "meta": {"OBJECT_NAME": "FENGYUN 1C DEB", "OBJECT_ID": "1999-025ABP", "EPOCH": "2025-12-26T01:22:28.999776", "MEAN_MOTION": 14.07594157, "ECCENTRICITY": 0.00275593, "INCLINATION": 98.7636, "RA_OF_ASC_NODE": 20.7379, "ARG_OF_PERICENTER": 280.4922, "MEAN_ANOMALY": 104.9819, "EPHEMERIS_TYPE": 0, "CLASSIFICATION_TYPE": "U", "NORAD_CAT_ID": 30352, "ELEMENT_SET_NO": 999, "REV_AT_EPOCH": 97098, "BSTAR": 0.0002415181, "MEAN_MOTION_DOT": 3.66e-06, "MEAN_MOTION_DDOT": 0}, "tle": {"line1": "1 30352U 99025ABP 25360.05728009  .00000366  00000+0  24152-3 0  9996", "line2": "2 30352  98.7636  20.7379 0027559 280.4922 104.9819 14.07594157970985"}}, "geometry": {"type": "Point", "coordinates": [-157.10435930208976, 9.69054842637474]}}, {"type": "Feature", "properties": {"norad_id": 30355, "name": "FENGYUN 1C DEB", "group": "fengyun-1c-debris", "lat": 6.976262832040944, "lon": 3.5795997723274993, "alt_km": 836.674409719225, "timestamp": "2025-12-26T17:24:54.995202+00:00", "meta": {"OBJECT_NAME": "FENGYUN 1C DEB", "OBJECT_ID": "1999-025ABS", "EPOCH": "2025-12-26T05:48:42.128928", "MEAN_MOTION": 14.18854741, "ECCENTRICITY": 0.00529682, "INCLINATION": 98.589, "RA_OF_ASC_NODE": 4.1709, "ARG_OF_PERICENTER": 270.0029, "MEAN_ANOMALY": 148.3937, "EPHEMERIS_TYPE": 0, "CLASSIFICATION_TYPE": "U", "NORAD_CAT_ID": 30355, "ELEMENT_SET_NO": 999, "REV_AT_EPOCH": 97542, "BSTAR": 0.00060888774, "MEAN_MOTION_DOT": 1.242e-05, "MEAN_MOTION_DDOT": 0}, "tle": {"line1": "1 30355U 99025ABS 25360.24215427  .00001242  00000+0  60889-3 0  9996", "line2": "2 30355  98.5890   4.1709 0052968 270.0029 148.3937 14.18854741975423"}}, "geometry": {"type": "Point", "coordinates": [3.5795997723274993, 6.976262832040944]}}, {"type": "Feature", "properties": {"norad_id": 30356, "name": "FENGYUN 1C DEB", "group": "fengyun-1c-debris", "lat": -55.16484562600521, "lon": 162.86170111438645, "alt_km": 819.21059233091, "timestamp": "2025-12-26T17:24:54.995212+00:00", "meta": {"OBJECT_NAME": "FENGYUN 1C DEB", "OBJECT_ID": "1999-025ABT", "EPOCH": "2025-12-25T12:00:01.010016", "MEAN_MOTION": 14.13066286, "ECCENTRICITY": 0.0051975, "INCLINATION": 98.682, "RA_OF_ASC_NODE": 354.3561, "ARG_OF_PERICENTER": 252.1277, "MEAN_ANOMALY": 232.7486, "EPHEMERIS_TYPE": 0, "CLASSIFICATION_TYPE": "U", "NORAD_CAT_ID": 30356, "ELEMENT_SET_NO": 999, "REV_AT_EPOCH": 97201, "BSTAR": 0.00062735, "MEAN_MOTION_DOT": 1.143e-05, "MEAN_MOTION_DDOT": 0}, "tle": {"line1": "1 30356U 99025ABT 25359.50001169  .00001143  00000+0  62735-3 0  9992", "line2": "2 30356  98.6820 354.3561 0051975 252.1277 232.7486 14.13066286972010"}}, "geometry": {"type": "Point", "coordinates": [162.86170111438645, -55.16484562600521]}}, {"type": "Feature", "properties": {"norad_id": 30357, "name": "FENGYUN 1C DEB", "group": "fengyun-1c-debris", "lat": 31.24136085570621, "lon": 22.17397105970524, "alt_km": 880.6632395948154, "timestamp": "2025-12-26T17:24:54.995222+00:00", "meta": {"OBJECT_NAME": "FENGYUN 1C DEB", "OBJECT_ID": "1999-025ABU", "EPOCH": "2025-12-26T02:11:19.643712", "MEAN_MOTION": 14.05269083, "ECCENTRICITY": 0.00485246, "INCLINATION": 98.805, "RA_OF_ASC_NODE": 26.953, "ARG_OF_PERICENTER": 292.0152, "MEAN_ANOMALY": 131.3723, "EPHEMERIS_TYPE": 0, "CLASSIFICATION_TYPE": "U", "NORAD_CAT_ID": 30357, "ELEMENT_SET_NO": 999, "REV_AT_EPOCH": 96994, "BSTAR": 0.00026909879, "MEAN_MOTION_DOT": 3.97e-06, "MEAN_MOTION_DDOT": 0}, "tle": {"line1": "1 30357U 99025ABU 25360.09119958  .00000397  00000+0  26910-3 0  9990", "line2": "2 30357  98.8050  26.9530 0048524 292.0152 131.3723 14.05269083969944"}}, "geometry": {"type": "Point", "coordinates": [22.17397105970524, 31.24136085570621]}}]}